{"type": "FeatureCollection", "features": [ {"type": "Feature", "properties": {"norad_id": 39122, "name": "EUTELSAT 117 WEST A", "group": "eutelsat", "lat": -0.004801076467360251, "lon": 172.85851822747728, "alt_km": 35789.57962373312, "timestamp": "2025-12-26T12:57:38.938470+00:00", "meta": {"OBJECT_NAME": "EUTELSAT 117 WEST A", "OBJECT_ID": "2013-012A", "EPOCH": "2025-12-26T05:44:38.581152", "MEAN_MOTION": 1.00270804, "ECCENTRICITY": 0.00028138, "INCLINATION": 0.0164, "RA_OF_ASC_NODE": 327.3949, "ARG_OF_PERICENTER": 311.2435, "MEAN_ANOMALY": 145.7116, "EPHEMERIS_TYPE": 0, "CLASSIFICATION_TYPE": "U", "NORAD_CAT_ID": 39122, "ELEMENT_SET_NO": 999, "REV_AT_EPOCH": 4669, "BSTAR": 0, "MEAN_MOTION_DOT": 9e-08, "MEAN_MOTION_DDOT": 0}, "tle": {"line1": "1 39122U 13012A   25360.23933543  .00000009  00000+0  00000+0 0  9999", "line2": "2 39122   0.0164 327.3949 0002813 311.2435 145.7116  1.00270804 46692"}}, "geometry": {"type": "Point", "coordinates": [172.85851822747728, -0.004801076467360251]}}, {"type": "Feature", "properties": {"norad_id": 39163, "name": "EUTELSAT 7B", "group": "eutelsat", "lat": -0.08249782099643291, "lon": -63.34058048660596, "alt_km": 35768.27518915394, "timestamp": "2025-12-26T12:57:38.938482+00:00", "meta": {"OBJECT_NAME": "EUTELSAT 7B", "OBJECT_ID": "2013-022A", "EPOCH": "2025-12-25T22:01:38.544672", "MEAN_MOTION": 1.00271769, "ECCENTRICITY": 0.00046702, "INCLINATION": 0.0662, "RA_OF_ASC_NODE": 11.1049, "ARG_OF_PERICENTER": 311.2066, "MEAN_ANOMALY": 109.7628, "EPHEMERIS_TYPE": 0, "CLASSIFICATION_TYPE": "U", "NORAD_CAT_ID": 39163, "ELEMENT_SET_NO": 999, "REV_AT_EPOCH": 4621, "BSTAR": 0, "MEAN_MOTION_DOT": 7e-07, "MEAN_MOTION_DDOT": 0}, "tle": {"line1": "1 39163U 13022A   25359.91780723  .00000070  00000+0  00000+0 0  9996", "line2": "2 39163   0.0662  11.1049 0004670 311.2066 109.7628  1.00271769 46219"}}, "geometry": {"type": "Point", "coordinates": [-63.34058048660596, -0.08249782099643291]}}, {"type": "Feature", "properties": {"norad_id": 39612, "name": "EXPRESS-AT1", "group": "eutelsat", "lat": 0.004665568509790085, "lon": -14.30481260777238, "alt_km": 35790.16933962288, "timestamp": "2025-12-26T12:57:38.938523+00:00", "meta": {"OBJECT_NAME": "EXPRESS-AT1", "OBJECT_ID": "2014-010A", "EPOCH": "2025-12-26T04:01:38.790048", "MEAN_MOTION": 1.00275867, "ECCENTRICITY": 0.00013564, "INCLINATION": 0.0174, "RA_OF_ASC_NODE": 279.8877, "ARG_OF_PERICENTER": 223.1198, "MEAN_ANOMALY": 68.3278, "EPHEMERIS_TYPE": 0, "CLASSIFICATION_TYPE": "U", "NORAD_CAT_ID": 39612, "ELEMENT_SET_NO": 999, "REV_AT_EPOCH": 4308, "BSTAR": 0, "MEAN_MOTION_DOT": 1e-06, "MEAN_MOTION_DDOT": 0}, "tle": {"line1": "1 39612U 14010A   25360.16781007  .00000100  00000+0  00000+0 0  9992", "line2": "2 39612   0.0174 279.8877 0001356 223.1198  68.3278  1.00275867 43089"}}, "geometry": {"type": "Point", "coordinates": [-14.30481260777238, 0.004665568509790085]}}, {"type": "Feature", "properties": {"norad_id": 39613, "name": "EXPRESS-AT2", "group": "eutelsat", "lat": 0.022608955706185267, "lon": 69.55822031978452, "alt_km": 35792.59035008479, "timestamp": "2025-12-26T12:57:38.938546+00:00", "meta": {"OBJECT_NAME": "EXPRESS-AT2", "OBJECT_ID": "2014-010B", "EPOCH": "2025-12-26T06:50:46.629024", "MEAN_MOTION": 1.00271364, "ECCENTRICITY": 0.00016477, "INCLINATION": 0.0135, "RA_OF_ASC_NODE": 309.8988, "ARG_OF_PERICENTER": 323.7792, "MEAN_ANOMALY": 63.911, "EPHEMERIS_TYPE": 0, "CLASSIFICATION_TYPE": "U", "NORAD_CAT_ID": 39613, "ELEMENT_SET_NO": 999, "REV_AT_EPOCH": 4276, "BSTAR": 0, "MEAN_MOTION_DOT": -2.59e-06, "MEAN_MOTION_DDOT": 0}, "tle": {"line1": "1 39613U 14010B   25360.28526191 -.00000259  00000+0  00000+0 0  9993", "line2": "2 39613   0.0135 309.8988 0001647 323.7792  63.9110  1.00271364 42762"}}, "geometry": {"type": "Point", "coordinates": [69.55822031978452, 0.022608955706185267]}}, {"type": "Feature", "properties": {"norad_id": 39773, "name": "EUTELSAT 3B", "group": "eutelsat", "lat": -0.06901120855516686, "lon": -67.17511174775224, "alt_km": 35776.72210892143, "timestamp": "2025-12-26T12:57:38.938560+00:00", "meta": {"OBJECT_NAME": "EUTELSAT 3B", "OBJECT_ID": "2014-030A", "EPOCH": "2025-12-25T22:09:38.747232", "MEAN_MOTION": 1.00270275, "ECCENTRICITY": 0.00042764, "INCLINATION": 0.0601, "RA_OF_ASC_NODE": 351.2904, "ARG_OF_PERICENTER": 244.007, "MEAN_ANOMALY": 194.888, "EPHEMERIS_TYPE": 0, "CLASSIFICATION_TYPE": "U", "NORAD_CAT_ID": 39773, "ELEMENT_SET_NO": 999, "REV_AT_EPOCH": 4233, "BSTAR": 0, "MEAN_MOTION_DOT": 4.1e-07, "MEAN_MOTION_DDOT": 0}, "tle": {"line1": "1 39773U 14030A   25359.92336513  .00000041  00000+0  00000+0 0  9996", "line2": "2 39773   0.0601 351.2904 0004276 244.0070 194.8880  1.00270275 42332"}}, "geometry": {"type": "Point", "coordinates": [-67.17511174775224, -0.06901120855516686]}}, {"type": "Feature", "properties": {"norad_id": 40425, "name": "EUTELSAT 115 WEST B", "group": "eutelsat", "lat": -0.0005673733729113007, "lon": 174.7838476559217, "alt_km": 35785.76637113608, "timestamp": "2025-12-26T12:57:38.938572+00:00", "meta": {"OBJECT_NAME": "EUTELSAT 115 WEST B", "OBJECT_ID": "2015-010B", "EPOCH": "2025-12-26T05:44:38.581152", "MEAN_MOTION": 1.00273604, "ECCENTRICITY": 7.8e-06, "INCLINATION": 0.0077, "RA_OF_ASC_NODE": 147.8651, "ARG_OF_PERICENTER": 258.8043, "MEAN_ANOMALY": 19.571, "EPHEMERIS_TYPE": 0, "CLASSIFICATION_TYPE": "U", "NORAD_CAT_ID": 40425, "ELEMENT_SET_NO": 999, "REV_AT_EPOCH": 3965, "BSTAR": 0, "MEAN_MOTION_DOT": -3e-08, "MEAN_MOTION_DDOT": 0}, "tle": {"line1": "1 40425U 15010B   25360.23933543 -.00000003  00000+0  00000+0 0  9992", "line2": "2 40425   0.0077 147.8651 0000078 258.8043  19.5710  1.00273604 39657"}}, "geometry": {"type": "Point", "coordinates": [174.7838476559217, -0.0005673733729113007]}}, {"type": "Feature", "properties": {"norad_id": 40875, "name": "EUTELSAT 8 WEST B", "group": "eutelsat", "lat": -0.08442187341574164, "lon": -78.30907568748343, "alt_km": 35768.4922609013, "timestamp": "2025-12-26T12:57:38.938584+00:00", "meta": {"OBJECT_NAME": "EUTELSAT 8 WEST B", "OBJECT_ID": "2015-039B", "EPOCH": "2025-12-26T06:08:50.644608", "MEAN_MOTION": 1.00271377, "ECCENTRICITY": 0.00042085, "INCLINATION": 0.0651, "RA_OF_ASC_NODE": 11.4179, "ARG_OF_PERICENTER": 264.1892, "MEAN_ANOMALY": 263.6052, "EPHEMERIS_TYPE": 0, "CLASSIFICATION_TYPE": "U", "NORAD_CAT_ID": 40875, "ELEMENT_SET_NO": 999, "REV_AT_EPOCH": 3792, "BSTAR": 0, "MEAN_MOTION_DOT": -4.4e-07, "MEAN_MOTION_DDOT": 0}, "tle": {"line1": "1 40875U 15039B   25360.25614172 -.00000044  00000+0  00000+0 0  9993", "line2": "2 40875   0.0651  11.4179 0004208 264.1892 263.6052  1.00271377 37920"}}, "geometry": {"type": "Point", "coordinates": [-78.30907568748343, -0.08442187341574164]}}, {"type": "Feature", "properties": {"norad_id": 41310, "name": "EUTELSAT 9B", "group": "eutelsat", "lat": -0.042831104909680166, "lon": -61.296617615291574, "alt_km": 35768.3875781911, "timestamp": "2025-12-26T12:57:38.938595+00:00", "meta": {"OBJECT_NAME": "EUTELSAT 9B", "OBJECT_ID": "2016-005A", "EPOCH": "2025-12-25T22:01:38.544672", "MEAN_MOTION": 1.0026988, "ECCENTRICITY": 0.00046842, "INCLINATION": 0.0266, "RA_OF_ASC_NODE": 46.8521, "ARG_OF_PERICENTER": 228.3219, "MEAN_ANOMALY": 158.904, "EPHEMERIS_TYPE": 0, "CLASSIFICATION_TYPE": "U", "NORAD_CAT_ID": 41310, "ELEMENT_SET_NO": 999, "REV_AT_EPOCH": 3637, "BSTAR": 0, "MEAN_MOTION_DOT": 8.3e-07, "MEAN_MOTION_DDOT": 0}, "tle": {"line1": "1 41310U 16005A   25359.91780723  .00000083  00000+0  00000+0 0  9991", "line2": "2 41310   0.0266  46.8521 0004684 228.3219 158.9040  1.00269880 36370"}}, "geometry": {"type": "Point", "coordinates": [-61.296617615291574, -0.042831104909680166]}}, {"type": "Feature", "properties": {"norad_id": 41382, "name": "EUTELSAT 65 WEST A", "group": "eutelsat", "lat": -0.0516471690952246, "lon": -135.51335142420655, "alt_km": 35780.37391426126, "timestamp": "2025-12-26T12:57:38.938607+00:00", "meta": {"OBJECT_NAME": "EUTELSAT 65 WEST A", "OBJECT_ID": "2016-014A", "EPOCH": "2025-12-26T05:52:37.198272", "MEAN_MOTION": 1.00271283, "ECCENTRICITY": 0.00023625, "INCLINATION": 0.0476, "RA_OF_ASC_NODE": 346.7914, "ARG_OF_PERICENTER": 291.636, "MEAN_ANOMALY": 199.5409, "EPHEMERIS_TYPE": 0, "CLASSIFICATION_TYPE": "U", "NORAD_CAT_ID": 41382, "ELEMENT_SET_NO": 999, "REV_AT_EPOCH": 3580, "BSTAR": 0, "MEAN_MOTION_DOT": -2.54e-06, "MEAN_MOTION_DDOT": 0}, "tle": {"line1": "1 41382U 16014A   25360.24487498 -.00000254  00000+0  00000+0 0  9992", "line2": "2 41382   0.0476 346.7914 0002362 291.6360 199.5409  1.00271283 35808"}}, "geometry": {"type": "Point", "coordinates": [-135.51335142420655, -0.0516471690952246]}}, {"type": "Feature", "properties": {"norad_id": 41589, "name": "EUTELSAT 117 WEST B", "group": "eutelsat", "lat": -0.0007853595858785605, "lon": 172.7176786498237, "alt_km": 35785.66738281559, "timestamp": "2025-12-26T12:57:38.938619+00:00", "meta": {"OBJECT_NAME": "EUTELSAT 117 WEST B", "OBJECT_ID": "2016-038B", "EPOCH": "2025-12-24T09:59:01.014144", "MEAN_MOTION": 1.00277873, "ECCENTRICITY": 6.384e-05, "INCLINATION": 0.0094, "RA_OF_ASC_NODE": 154.0765, "ARG_OF_PERICENTER": 139.5473, "MEAN_ANOMALY": 192.3072, "EPHEMERIS_TYPE": 0, "CLASSIFICATION_TYPE": "U", "NORAD_CAT_ID": 41589, "ELEMENT_SET_NO": 999, "REV_AT_EPOCH": 3491, "BSTAR": 0, "MEAN_MOTION_DOT": 9e-08, "MEAN_MOTION_DDOT": 0}, "tle": {"line1": "1 41589U 16038B   25358.41598396  .00000009  00000+0  00000+0 0  9990", "line2": "2 41589   0.0094 154.0765 0000638 139.5473 192.3072  1.00277873 34915"}}, "geometry": {"type": "Point", "coordinates": [172.7176786498237, -0.0007853595858785605]}}]}